{
  "type": "FeatureCollection",
  "features": [
    {
      "type": "Feature",
      "properties": {
        "norad_id": 33986,
        "name": "COSMOS 2251 DEB",
        "group": "cosmos-2251-debris",
        "lat": 8.791743572326226,
        "lon": -60.14626259513926,
        "alt_km": 720.3597834570528,
        "timestamp": "2025-12-15T14:57:58.205269+00:00",
        "meta_object_name": "COSMOS 2251 DEB",
        "meta_object_id": "1993-036FV",
        "meta_epoch": "2025-12-14T22:35:17.933856",
        "meta_mean_motion": 14.43217659,
        "meta_eccentricity": 0.00405812,
        "meta_inclination": 74.0367,
        "meta_ra_of_asc_node": 298.5834,
        "meta_arg_of_pericenter": 10.7603,
        "meta_mean_anomaly": 54.4116,
        "meta_ephemeris_type": 0,
        "meta_classification_type": "U",
        "meta_norad_cat_id": 33986,
        "meta_element_set_no": 999,
        "meta_rev_at_epoch": 88060,
        "meta_bstar": 0.00060977793,
        "meta_mean_motion_dot": 2.045e-05,
        "meta_mean_motion_ddot": 0,
        "tle_line1": "1 33986U 93036FV  25348.94117979  .00002045  00000+0  60978-3 0  9992",
        "tle_line2": "2 33986  74.0367 298.5834 0040581  10.7603  54.4116 14.43217659880607"
      },
      "geometry": {
        "type": "Point",
        "coordinates": [
          -60.14626259513926,
          8.791743572326226
        ]
      }
    },
    {
      "type": "Feature",
      "properties": {
        "norad_id": 33990,
        "name": "COSMOS 2251 DEB",
        "group": "cosmos-2251-debris",
        "lat": 9.627975013518572,
        "lon": 98.56198125713934,
        "alt_km": 1266.5708408257515,
        "timestamp": "2025-12-15T14:57:58.205278+00:00",
        "meta_object_name": "COSMOS 2251 DEB",
        "meta_object_id": "1993-036FZ",
        "meta_epoch": "2025-12-14T22:24:27.125856",
        "meta_mean_motion": 13.4999772,
        "meta_eccentricity": 0.04075045,
        "meta_inclination": 73.9289,
        "meta_ra_of_asc_node": 282.472,
        "meta_arg_of_pericenter": 302.3846,
        "meta_mean_anomaly": 119.1826,
        "meta_ephemeris_type": 0,
        "meta_classification_type": "U",
        "meta_norad_cat_id": 33990,
        "meta_element_set_no": 999,
        "meta_rev_at_epoch": 82759,
        "meta_bstar": 0.001022004,
        "meta_mean_motion_dot": 1.065e-05,
        "meta_mean_motion_ddot": 0,
        "tle_line1": "1 33990U 93036FZ  25348.93364729  .00001065  00000+0  10220-2 0  9998",
        "tle_line2": "2 33990  73.9289 282.4720 0407504 302.3846 119.1826 13.49997720827595"
      },
      "geometry": {
        "type": "Point",
        "coordinates": [
          98.56198125713934,
          9.627975013518572
        ]
      }
    },
    {
      "type": "Feature",
      "properties": {
        "norad_id": 33992,
        "name": "COSMOS 2251 DEB",
        "group": "cosmos-2251-debris",
        "lat": 69.21143660031301,
        "lon": 103.18239739128371,
        "alt_km": 630.7172074375103,
        "timestamp": "2025-12-15T14:57:58.205287+00:00",
        "meta_object_name": "COSMOS 2251 DEB",
        "meta_object_id": "1993-036GB",
        "meta_epoch": "2025-12-14T17:59:35.053728",
        "meta_mean_motion": 14.66234482,
        "meta_eccentricity": 0.00516319,
        "meta_inclination": 74.024,
        "meta_ra_of_asc_node": 333.8597,
        "meta_arg_of_pericenter": 91.1017,
        "meta_mean_anomaly": 81.3682,
        "meta_ephemeris_type": 0,
        "meta_classification_type": "U",
        "meta_norad_cat_id": 33992,
        "meta_element_set_no": 999,
        "meta_rev_at_epoch": 89154,
        "meta_bstar": 0.0007274302,
        "meta_mean_motion_dot": 4.058e-05,
        "meta_mean_motion_ddot": 0,
        "tle_line1": "1 33992U 93036GB  25348.74971127  .00004058  00000+0  72743-3 0  9999",
        "tle_line2": "2 33992  74.0240 333.8597 0051631  91.1017  81.3682 14.66234482891543"
      },
      "geometry": {
        "type": "Point",
        "coordinates": [
          103.18239739128371,
          69.21143660031301
        ]
      }
    },
    {
      "type": "Feature",
      "properties": {
        "norad_id": 33994,
        "name": "COSMOS 2251 DEB",
        "group": "cosmos-2251-debris",
        "lat": 59.25399534310498,
        "lon": -23.680371991618323,
        "alt_km": 764.0518441065924,
        "timestamp": "2025-12-15T14:57:58.205296+00:00",
        "meta_object_name": "COSMOS 2251 DEB",
        "meta_object_id": "1993-036GD",
        "meta_epoch": "2025-12-14T22:18:48.080160",
        "meta_mean_motion": 14.41215871,
        "meta_eccentricity": 0.00237248,
        "meta_inclination": 74.0415,
        "meta_ra_of_asc_node": 186.3571,
        "meta_arg_of_pericenter": 320.2911,
        "meta_mean_anomaly": 157.5968,
        "meta_ephemeris_type": 0,
        "meta_classification_type": "U",
        "meta_norad_cat_id": 33994,
        "meta_element_set_no": 999,
        "meta_rev_at_epoch": 88451,
        "meta_bstar": 9.6515341e-05,
        "meta_mean_motion_dot": 2.86e-06,
        "meta_mean_motion_ddot": 0,
        "tle_line1": "1 33994U 93036GD  25348.92972315  .00000286  00000+0  96515-4 0  9994",
        "tle_line2": "2 33994  74.0415 186.3571 0023724 320.2911 157.5968 14.41215871884519"
      },
      "geometry": {
        "type": "Point",
        "coordinates": [
          -23.680371991618323,
          59.25399534310498
        ]
      }
    },
    {
      "type": "Feature",
      "properties": {
        "norad_id": 33995,
        "name": "COSMOS 2251 DEB",
        "group": "cosmos-2251-debris",
        "lat": 51.24768510193047,
        "lon": -86.78166715757281,
        "alt_km": 727.7954263220363,
        "timestamp": "2025-12-15T14:57:58.205305+00:00",
        "meta_object_name": "COSMOS 2251 DEB",
        "meta_object_id": "1993-036GE",
        "meta_epoch": "2025-12-14T14:57:25.441632",
        "meta_mean_motion": 14.34785008,
        "meta_eccentricity": 0.00599625,
        "meta_inclination": 74.0609,
        "meta_ra_of_asc_node": 115.9053,
        "meta_arg_of_pericenter": 129.8093,
        "meta_mean_anomaly": 230.836,
        "meta_ephemeris_type": 0,
        "meta_classification_type": "U",
        "meta_norad_cat_id": 33995,
        "meta_element_set_no": 999,
        "meta_rev_at_epoch": 87546,
        "meta_bstar": 0.00093214446,
        "meta_mean_motion_dot": 2.673e-05,
        "meta_mean_motion_ddot": 0,
        "tle_line1": "1 33995U 93036GE  25348.62321113  .00002673  00000+0  93214-3 0  9990",
        "tle_line2": "2 33995  74.0609 115.9053 0059962 129.8093 230.8360 14.34785008875466"
      },
      "geometry": {
        "type": "Point",
        "coordinates": [
          -86.78166715757281,
          51.24768510193047
        ]
      }
    },
    {
      "type": "Feature",
      "properties": {
        "norad_id": 33999,
        "name": "COSMOS 2251 DEB",
        "group": "cosmos-2251-debris",
        "lat": 62.598133894501025,
        "lon": -101.1619689760783,
        "alt_km": 592.9451397238599,
        "timestamp": "2025-12-15T14:57:58.205314+00:00",
        "meta_object_name": "COSMOS 2251 DEB",
        "meta_object_id": "1993-036GJ",
        "meta_epoch": "2025-12-14T17:37:18.968448",
        "meta_mean_motion": 14.83417878,
        "meta_eccentricity": 0.00444505,
        "meta_inclination": 73.9189,
        "meta_ra_of_asc_node": 226.7987,
        "meta_arg_of_pericenter": 121.8321,
        "meta_mean_anomaly": 238.7196,
        "meta_ephemeris_type": 0,
        "meta_classification_type": "U",
        "meta_norad_cat_id": 33999,
        "meta_element_set_no": 999,
        "meta_rev_at_epoch": 89280,
        "meta_bstar": 0.0010338048,
        "meta_mean_motion_dot": 8.611e-05,
        "meta_mean_motion_ddot": 0,
        "tle_line1": "1 33999U 93036GJ  25348.73424732  .00008611  00000+0  10338-2 0  9990",
        "tle_line2": "2 33999  73.9189 226.7987 0044450 121.8321 238.7196 14.83417878892802"
      },
      "geometry": {
        "type": "Point",
        "coordinates": [
          -101.1619689760783,
          62.598133894501025
        ]
      }
    },
    {
      "type": "Feature",
      "properties": {
        "norad_id": 34001,
        "name": "COSMOS 2251 DEB",
        "group": "cosmos-2251-debris",
        "lat": -52.50837969382578,
        "lon": -105.62127771497049,
        "alt_km": 765.8846958164968,
        "timestamp": "2025-12-15T14:57:58.205322+00:00",
        "meta_object_name": "COSMOS 2251 DEB",
        "meta_object_id": "1993-036GL",
        "meta_epoch": "2025-12-14T21:06:44.093664",
        "meta_mean_motion": 14.37101099,
        "meta_eccentricity": 0.0020061,
        "meta_inclination": 74.0389,
        "meta_ra_of_asc_node": 277.6524,
        "meta_arg_of_pericenter": 358.1385,
        "meta_mean_anomaly": 59.3599,
        "meta_ephemeris_type": 0,
        "meta_classification_type": "U",
        "meta_norad_cat_id": 34001,
        "meta_element_set_no": 999,
        "meta_rev_at_epoch": 88177,
        "meta_bstar": 0.0002148399,
        "meta_mean_motion_dot": 6.13e-06,
        "meta_mean_motion_ddot": 0,
        "tle_line1": "1 34001U 93036GL  25348.87967701  .00000613  00000+0  21484-3 0  9997",
        "tle_line2": "2 34001  74.0389 277.6524 0020061 358.1385  59.3599 14.37101099881772"
      },
      "geometry": {
        "type": "Point",
        "coordinates": [
          -105.62127771497049,
          -52.50837969382578
        ]
      }
    }
  ]
}